[{"OBJECT_NAME":"CELESTIS-17 & SHERPA-FX1","OBJECT_ID":"2021-006CB","EPOCH":"2026-03-09T15:26:05.078112","MEAN_MOTION":15.30994801,"ECCENTRICITY":0.000663,"INCLINATION":97.2397,"RA_OF_ASC_NODE":112.1052,"ARG_OF_PERICENTER":178.1385,"MEAN_ANOMALY":181.9882,"EPHEMERIS_TYPE":0,"CLASSIFICATION_TYPE":"U","NORAD_CAT_ID":47486,"ELEMENT_SET_NO":999,"REV_AT_EPOCH":28406,"BSTAR":0.00024301,"MEAN_MOTION_DOT":7.207e-5,"MEAN_MOTION_DDOT":0},{"OBJECT_NAME":"STARLINK-31938","OBJECT_ID":"2024-098H","EPOCH":"2026-03-09T14:04:29.216928","MEAN_MOTION":15.27575057,"ECCENTRICITY":0.0002368,"INCLINATION":43.0016,"RA_OF_ASC_NODE":278.2884,"ARG_OF_PERICENTER":258.0482,"MEAN_ANOMALY":102.0104,"EPHEMERIS_TYPE":0,"CLASSIFICATION_TYPE":"U","NORAD_CAT_ID":59865,"ELEMENT_SET_NO":999,"REV_AT_EPOCH":10183,"BSTAR":0.00020509,"MEAN_MOTION_DOT":5.385e-5,"MEAN_MOTION_DDOT":0}]
