CELESTIS-17 & SHERPA-FX1
1 47486U 21006CB  26068.64311433  .00007207  00000+0  24301-3 0  9993
2 47486  97.2397 112.1052 0006630 178.1385 181.9882 15.30994801284065
STARLINK-31938          
1 59865U 24098H   26068.58644927  .00005385  00000+0  20509-3 0  9992
2 59865  43.0016 278.2884 0002368 258.0482 102.0104 15.27575057101831
